[{"OBJECT_NAME":"DMSP 5D-3 F18 (USA 210)","OBJECT_ID":"2009-057A","EPOCH":"2026-04-25T22:51:07.319520","MEAN_MOTION":14.14865963,"ECCENTRICITY":0.00119224,"INCLINATION":98.9016,"RA_OF_ASC_NODE":96.8439,"ARG_OF_PERICENTER":43.8558,"MEAN_ANOMALY":316.356,"EPHEMERIS_TYPE":0,"CLASSIFICATION_TYPE":"U","NORAD_CAT_ID":35951,"ELEMENT_SET_NO":999,"REV_AT_EPOCH":85220,"BSTAR":0.00017037084,"MEAN_MOTION_DOT":2.84e-6,"MEAN_MOTION_DDOT":0},{"OBJECT_NAME":"PROBA-2","OBJECT_ID":"2009-059B","EPOCH":"2026-04-25T18:20:39.108192","MEAN_MOTION":14.54839118,"ECCENTRICITY":0.00145697,"INCLINATION":98.2451,"RA_OF_ASC_NODE":299.8446,"ARG_OF_PERICENTER":83.6741,"MEAN_ANOMALY":276.6115,"EPHEMERIS_TYPE":0,"CLASSIFICATION_TYPE":"U","NORAD_CAT_ID":36037,"ELEMENT_SET_NO":999,"REV_AT_EPOCH":87390,"BSTAR":5.0301285e-5,"MEAN_MOTION_DOT":1.71e-6,"MEAN_MOTION_DDOT":0},{"OBJECT_NAME":"YAOGAN-7","OBJECT_ID":"2009-069A","EPOCH":"2026-04-25T16:31:06.628224","MEAN_MOTION":14.77956096,"ECCENTRICITY":0.00239344,"INCLINATION":98.0136,"RA_OF_ASC_NODE":1.8631,"ARG_OF_PERICENTER":205.8382,"MEAN_ANOMALY":154.1635,"EPHEMERIS_TYPE":0,"CLASSIFICATION_TYPE":"U","NORAD_CAT_ID":36110,"ELEMENT_SET_NO":999,"REV_AT_EPOCH":88187,"BSTAR":6.4343275e-5,"MEAN_MOTION_DOT":4.13e-6,"MEAN_MOTION_DDOT":0},{"OBJECT_NAME":"XIWANG-1 (HOPE-1)","OBJECT_ID":"2009-072B","EPOCH":"2026-04-25T21:07:54.513984","MEAN_MOTION":13.16436689,"ECCENTRICITY":0.00075575,"INCLINATION":100.3988,"RA_OF_ASC_NODE":70.5582,"ARG_OF_PERICENTER":358.5441,"MEAN_ANOMALY":1.5648,"EPHEMERIS_TYPE":0,"CLASSIFICATION_TYPE":"U","NORAD_CAT_ID":36122,"ELEMENT_SET_NO":999,"REV_AT_EPOCH":78612,"BSTAR":-0.0007442828,"MEAN_MOTION_DOT":-3.29e-6,"MEAN_MOTION_DDOT":0},{"OBJECT_NAME":"RADUGA-1M 2","OBJECT_ID":"2010-002A","EPOCH":"2026-04-25T16:14:53.934432","MEAN_MOTION":0.98968343,"ECCENTRICITY":0.00074315,"INCLINATION":3.4863,"RA_OF_ASC_NODE":79.4844,"ARG_OF_PERICENTER":261.4386,"MEAN_ANOMALY":311.7887,"EPHEMERIS_TYPE":0,"CLASSIFICATION_TYPE":"U","NORAD_CAT_ID":36358,"ELEMENT_SET_NO":999,"REV_AT_EPOCH":4950,"BSTAR":0,"MEAN_MOTION_DOT":-8.3e-7,"MEAN_MOTION_DDOT":0},{"OBJECT_NAME":"COSMOS 2463","OBJECT_ID":"2010-017A","EPOCH":"2026-04-25T23:18:46.374912","MEAN_MOTION":13.71662097,"ECCENTRICITY":0.00347957,"INCLINATION":82.957,"RA_OF_ASC_NODE":288.0793,"ARG_OF_PERICENTER":275.1458,"MEAN_ANOMALY":195.3332,"EPHEMERIS_TYPE":0,"CLASSIFICATION_TYPE":"U","NORAD_CAT_ID":36519,"ELEMENT_SET_NO":999,"REV_AT_EPOCH":80077,"BSTAR":5.1670666e-5,"MEAN_MOTION_DOT":6.1e-7,"MEAN_MOTION_DDOT":0},{"OBJECT_NAME":"CARTOSAT-2B","OBJECT_ID":"2010-035A","EPOCH":"2026-04-25T21:28:33.971232","MEAN_MOTION":14.78661146,"ECCENTRICITY":0.00113841,"INCLINATION":98,"RA_OF_ASC_NODE":166.7659,"ARG_OF_PERICENTER":7.4008,"MEAN_ANOMALY":352.7369,"EPHEMERIS_TYPE":0,"CLASSIFICATION_TYPE":"U","NORAD_CAT_ID":36795,"ELEMENT_SET_NO":999,"REV_AT_EPOCH":85212,"BSTAR":4.9816952e-5,"MEAN_MOTION_DOT":3.13e-6,"MEAN_MOTION_DDOT":0},{"OBJECT_NAME":"AISSAT 1","OBJECT_ID":"2010-035C","EPOCH":"2026-04-25T16:21:14.001984","MEAN_MOTION":14.97140405,"ECCENTRICITY":0.00075547,"INCLINATION":98.0977,"RA_OF_ASC_NODE":13.0708,"ARG_OF_PERICENTER":225.5126,"MEAN_ANOMALY":134.5478,"EPHEMERIS_TYPE":0,"CLASSIFICATION_TYPE":"U","NORAD_CAT_ID":36797,"ELEMENT_SET_NO":999,"REV_AT_EPOCH":85636,"BSTAR":0.00013926687,"MEAN_MOTION_DOT":1.546e-5,"MEAN_MOTION_DDOT":0},{"OBJECT_NAME":"TISAT 1","OBJECT_ID":"2010-035E","EPOCH":"2026-04-25T19:39:55.021248","MEAN_MOTION":15.29673687,"ECCENTRICITY":0.00047122,"INCLINATION":98.0676,"RA_OF_ASC_NODE":57.8202,"ARG_OF_PERICENTER":80.5731,"MEAN_ANOMALY":279.604,"EPHEMERIS_TYPE":0,"CLASSIFICATION_TYPE":"U","NORAD_CAT_ID":36799,"ELEMENT_SET_NO":999,"REV_AT_EPOCH":85969,"BSTAR":0.00079083136,"MEAN_MOTION_DOT":0.00022703,"MEAN_MOTION_DDOT":0},{"OBJECT_NAME":"YAOGAN-10","OBJECT_ID":"2010-038A","EPOCH":"2026-04-26T00:07:49.191744","MEAN_MOTION":14.85180793,"ECCENTRICITY":0.00013428,"INCLINATION":97.9027,"RA_OF_ASC_NODE":139.8226,"ARG_OF_PERICENTER":85.8281,"MEAN_ANOMALY":336.1835,"EPHEMERIS_TYPE":0,"CLASSIFICATION_TYPE":"U","NORAD_CAT_ID":36834,"ELEMENT_SET_NO":999,"REV_AT_EPOCH":84946,"BSTAR":7.9017222e-5,"MEAN_MOTION_DOT":6.23e-6,"MEAN_MOTION_DDOT":0},{"OBJECT_NAME":"SHIJIAN-6 04B (SJ-6 04B)","OBJECT_ID":"2010-051B","EPOCH":"2026-04-25T23:10:08.621184","MEAN_MOTION":14.99225372,"ECCENTRICITY":0.00131742,"INCLINATION":97.8734,"RA_OF_ASC_NODE":120.8359,"ARG_OF_PERICENTER":117.5168,"MEAN_ANOMALY":242.7395,"EPHEMERIS_TYPE":0,"CLASSIFICATION_TYPE":"U","NORAD_CAT_ID":37180,"ELEMENT_SET_NO":999,"REV_AT_EPOCH":84785,"BSTAR":0.00014667251,"MEAN_MOTION_DOT":1.729e-5,"MEAN_MOTION_DDOT":0},{"OBJECT_NAME":"FENGYUN 3B","OBJECT_ID":"2010-059A","EPOCH":"2026-04-25T23:21:21.734208","MEAN_MOTION":14.14829704,"ECCENTRICITY":0.00216718,"INCLINATION":98.9673,"RA_OF_ASC_NODE":161.7544,"ARG_OF_PERICENTER":337.4766,"MEAN_ANOMALY":90.8496,"EPHEMERIS_TYPE":0,"CLASSIFICATION_TYPE":"U","NORAD_CAT_ID":37214,"ELEMENT_SET_NO":999,"REV_AT_EPOCH":80004,"BSTAR":0.00012734268,"MEAN_MOTION_DOT":2.01e-6,"MEAN_MOTION_DDOT":0},{"OBJECT_NAME":"COSMO-SKYMED 4","OBJECT_ID":"2010-060A","EPOCH":"2026-04-25T22:05:37.931424","MEAN_MOTION":14.82159919,"ECCENTRICITY":0.00013704,"INCLINATION":97.8892,"RA_OF_ASC_NODE":300.2769,"ARG_OF_PERICENTER":77.3797,"MEAN_ANOMALY":282.7569,"EPHEMERIS_TYPE":0,"CLASSIFICATION_TYPE":"U","NORAD_CAT_ID":37216,"ELEMENT_SET_NO":999,"REV_AT_EPOCH":83682,"BSTAR":5.8664147e-5,"MEAN_MOTION_DOT":4.15e-6,"MEAN_MOTION_DDOT":0},{"OBJECT_NAME":"O/OREOS (USA 219)","OBJECT_ID":"2010-062C","EPOCH":"2026-04-25T14:54:06.782112","MEAN_MOTION":14.93526406,"ECCENTRICITY":0.00142737,"INCLINATION":71.9703,"RA_OF_ASC_NODE":199.3874,"ARG_OF_PERICENTER":174.5038,"MEAN_ANOMALY":185.6292,"EPHEMERIS_TYPE":0,"CLASSIFICATION_TYPE":"U","NORAD_CAT_ID":37224,"ELEMENT_SET_NO":999,"REV_AT_EPOCH":10879,"BSTAR":0.0001816964,"MEAN_MOTION_DOT":1.855e-5,"MEAN_MOTION_DDOT":0},{"OBJECT_NAME":"ELEKTRO-L 1 (GOMS 2)","OBJECT_ID":"2011-001A","EPOCH":"2026-04-25T20:01:41.880864","MEAN_MOTION":1.00159298,"ECCENTRICITY":0.0003964,"INCLINATION":9.5706,"RA_OF_ASC_NODE":55.0294,"ARG_OF_PERICENTER":17.6204,"MEAN_ANOMALY":351.8176,"EPHEMERIS_TYPE":0,"CLASSIFICATION_TYPE":"U","NORAD_CAT_ID":37344,"ELEMENT_SET_NO":999,"REV_AT_EPOCH":5596,"BSTAR":0,"MEAN_MOTION_DOT":-1.82e-6,"MEAN_MOTION_DDOT":0},{"OBJECT_NAME":"RESOURCESAT-2","OBJECT_ID":"2011-015A","EPOCH":"2026-04-25T22:27:03.616992","MEAN_MOTION":14.21599244,"ECCENTRICITY":0.00121242,"INCLINATION":98.7667,"RA_OF_ASC_NODE":183.7311,"ARG_OF_PERICENTER":52.7862,"MEAN_ANOMALY":307.442,"EPHEMERIS_TYPE":0,"CLASSIFICATION_TYPE":"U","NORAD_CAT_ID":37387,"ELEMENT_SET_NO":999,"REV_AT_EPOCH":77875,"BSTAR":7.1021155e-5,"MEAN_MOTION_DOT":1.12e-6,"MEAN_MOTION_DDOT":0}]
